$$SOE
2459580.500000000, A.D. 2022-Jan-01 00:00:00.0000, -5.197481858303171E+07, -4.571140114540607E+08, 1.443694880262110E+07,
2459587.500000000, A.D. 2022-Jan-08 00:00:00.0000, -4.264475633540306E+07, -4.583183853089408E+08, 1.478716719904619E+07,
2459594.500000000, A.D. 2022-Jan-15 00:00:00.0000, -3.329349583129131E+07, -4.592949528142043E+08, 1.513003498438621E+07,
2459601.500000000, A.D. 2022-Jan-22 00:00:00.0000, -2.392570304046249E+07, -4.600435453095400E+08, 1.546539169690537E+07,
2459608.500000000, A.D. 2022-Jan-29 00:00:00.0000, -1.454603579637488E+07, -4.605640508347332E+08, 1.579307932116219E+07,
2459615.500000000, A.D. 2022-Feb-05 00:00:00.0000, -5.159147042121373E+06, -4.608564143796234E+08, 1.611294238677192E+07,
2459622.500000000, A.D. 2022-Feb-12 00:00:00.0000, 4.230314091672560E+06, -4.609206392979724E+08, 1.642482778516579E+07,
2459629.500000000, A.D. 2022-Feb-19 00:00:00.0000, 1.361770205440239E+07, -4.607567875167928E+08, 1.672858461951119E+07,
2459636.500000000, A.D. 2022-Feb-26 00:00:00.0000, 2.299837417897984E+07, -4.603649792641101E+08, 1.702406414895186E+07,
2459643.500000000, A.D. 2022-Mar-05 00:00:00.0000, 3.236768968244657E+07, -4.597453929316818E+08, 1.731111976198682E+07,
2459650.500000000, A.D. 2022-Mar-12 00:00:00.0000, 4.172100858750377E+07, -4.588982651379091E+08, 1.758960695303142E+07,
2459657.500000000, A.D. 2022-Mar-19 00:00:00.0000, 5.105369063821139E+07, -4.578238909623485E+08, 1.785938329763094E+07,
2459664.500000000, A.D. 2022-Mar-26 00:00:00.0000, 6.036109423484327E+07, -4.565226243575066E+08, 1.812030842349055E+07,
2459671.500000000, A.D. 2022-Apr-02 00:00:00.0000, 6.963857545844741E+07, -4.549948787942895E+08, 1.837224396638402E+07,
2459678.500000000, A.D. 2022-Apr-09 00:00:00.0000, 7.888148745950967E+07, -4.532411281375684E+08, 1.861505348642260E+07,
2459685.500000000, A.D. 2022-Apr-16 00:00:00.0000, 8.808518056941009E+07, -4.512619070991835E+08, 1.884860236552912E+07,
2459692.500000000, A.D. 2022-Apr-23 00:00:00.0000, 9.724500186657324E+07, -4.490578101845490E+08, 1.907275789120618E+07,
2459699.500000000, A.D. 2022-Apr-30 00:00:00.0000, 1.063562923279565E+08, -4.466294913765140E+08, 1.928738951446962E+07,
2459706.500000000, A.D. 2022-May-07 00:00:00.0000, 1.154143846310064E+08, -4.439776665275980E+08, 1.949236883935165E+07,
2459713.500000000, A.D. 2022-May-14 00:00:00.0000, 1.244146029995156E+08, -4.411031154217532E+08, 1.968756946460935E+07,
2459720.500000000, A.D. 2022-May-21 00:00:00.0000, 1.333522630668446E+08, -4.380066827481061E+08, 1.987286692601261E+07,
2459727.500000000, A.D. 2022-May-28 00:00:00.0000, 1.422226712820970E+08, -4.346892789478461E+08, 2.004813870504966E+07,
2459734.500000000, A.D. 2022-Jun-04 00:00:00.0000, 1.510211241400545E+08, -4.311518812502443E+08, 2.021326425350270E+07,
2459741.500000000, A.D. 2022-Jun-11 00:00:00.0000, 1.597429073823352E+08, -4.273955348985571E+08, 2.036812502126107E+07,
2459748.500000000, A.D. 2022-Jun-18 00:00:00.0000, 1.683832952108076E+08, -4.234213545544286E+08, 2.051260448523939E+07,
2459755.500000000, A.D. 2022-Jun-25 00:00:00.0000, 1.769375495453801E+08, -4.192305259148332E+08, 2.064658817417544E+07,
2459762.500000000, A.D. 2022-Jul-02 00:00:00.0000, 1.854009194637360E+08, -4.148243076079764E+08, 2.076996367183654E+07,
2459769.500000000, A.D. 2022-Jul-09 00:00:00.0000, 1.937686412173576E+08, -4.102040331924943E+08, 2.088262057764855E+07,
2459776.500000000, A.D. 2022-Jul-16 00:00:00.0000, 2.020359387725984E+08, -4.053711121789879E+08, 2.098445051875779E+07,
2459783.500000000, A.D. 2022-Jul-23 00:00:00.0000, 2.101980226818461E+08, -4.003270299973979E+08, 2.107534742187946E+07,
2459790.500000000, A.D. 2022-Jul-30 00:00:00.0000, 2.182500873726224E+08, -3.950733502636620E+08, 2.115520776323096E+07,
2459797.500000000, A.D. 2022-Aug-06 00:00:00.0000, 2.261873104590048E+08, -3.896117186970558E+08, 2.122393051957445E+07,
2459804.500000000, A.D. 2022-Aug-13 00:00:00.0000, 2.340048532590781E+08, -3.839438659352024E+08, 2.128141712148097E+07,
2459811.500000000, A.D. 2022-Aug-20 00:00:00.0000, 2.416978609559914E+08, -3.780716097524064E+08, 2.132757151226999E+07,
2459818.500000000, A.D. 2022-Aug-27 00:00:00.0000, 2.492614624776960E+08, -3.719968574101945E+08, 2.136230024761963E+07,
2459825.500000000, A.D. 2022-Sep-03 00:00:00.0000, 2.566907703503416E+08, -3.657216082529773E+08, 2.138551260465387E+07,
2459832.500000000, A.D. 2022-Sep-10 00:00:00.0000, 2.639808806224772E+08, -3.592479565272252E+08, 2.139712069470650E+07,
2459839.500000000, A.D. 2022-Sep-17 00:00:00.0000, 2.711268728964626E+08, -3.525780944277017E+08, 2.139703957725826E+07,
2459846.500000000, A.D. 2022-Sep-24 00:00:00.0000, 2.781238105348225E+08, -3.457143154225426E+08, 2.138518736548230E+07,
2459853.500000000, A.D. 2022-Oct-01 00:00:00.0000, 2.849667412899638E+08, -3.386590178797705E+08, 2.136148529963070E+07,
2459860.500000000, A.D. 2022-Oct-08 00:00:00.0000, 2.916506987744665E+08, -3.314147084740196E+08, 2.132585779382649E+07,
2459867.500000000, A.D. 2022-Oct-15 00:00:00.0000, 2.981707038504745E+08, -3.239840041761926E+08, 2.127823264013053E+07,
2459874.500000000, A.D. 2022-Oct-22 00:00:00.0000, 3.045217637660040E+08, -3.163696345111404E+08, 2.121854143251017E+07,
2459881.500000000, A.D. 2022-Oct-29 00:00:00.0000, 3.106988715453421E+08, -3.085744466755604E+08, 2.114671976939692E+07,
2459888.500000000, A.D. 2022-Nov-05 00:00:00.0000, 3.166970077443631E+08, -3.006014107731541E+08, 2.106270726618455E+07,
2459895.500000000, A.D. 2022-Nov-12 00:00:00.0000, 3.225111426189430E+08, -2.924536238989993E+08, 2.096644766168262E+07,
2459902.500000000, A.D. 2022-Nov-19 00:00:00.0000, 3.281362380003977E+08, -2.841343140262274E+08, 2.085788900682807E+07,
2459909.500000000, A.D. 2022-Nov-26 00:00:00.0000, 3.335672491539902E+08, -2.756468440905148E+08, 2.073698387943096E+07,
2459916.500000000, A.D. 2022-Dec-03 00:00:00.0000, 3.387991268012156E+08, -2.669947162814671E+08, 2.060368960915770E+07,
2459923.500000000, A.D. 2022-Dec-10 00:00:00.0000, 3.438268193668516E+08, -2.581815765193112E+08, 2.045796851056477E+07,
2459930.500000000, A.D. 2022-Dec-17 00:00:00.0000, 3.486452754912881E+08, -2.492112191384879E+08, 2.029978812034148E+07,
2459937.500000000, A.D. 2022-Dec-24 00:00:00.0000, 3.532494469331177E+08, -2.400875918394313E+08, 2.012912142367357E+07,
2459944.500000000, A.D. 2022-Dec-31 00:00:00.0000, 3.576342922354071E+08, -2.308148007945801E+08, 1.994594704591809E+07,
2459951.500000000, A.D. 2023-Jan-07 00:00:00.0000, 3.617947812955532E+08, -2.213971149385618E+08, 1.975024947734243E+07,
2459958.500000000, A.D. 2023-Jan-14 00:00:00.0000, 3.657258988896191E+08, -2.118389689378090E+08, 1.954201955235697E+07,
2459965.500000000, A.D. 2023-Jan-21 00:00:00.0000, 3.694226465230978E+08, -2.021449680016725E+08, 1.932125498295942E+07,
2459972.500000000, A.D. 2023-Jan-28 00:00:00.0000, 3.728800462939501E+08, -1.923198947155109E+08, 1.908796059360095E+07,
2459979.500000000, A.D. 2023-Feb-04 00:00:00.0000, 3.760931465817817E+08, -1.823687148522511E+08, 1.884214852437042E+07,
2459986.500000000, A.D. 2023-Feb-11 00:00:00.0000, 3.790570277925814E+08, -1.722965823416294E+08, 1.858383855221048E+07,
2459993.500000000, A.D. 2023-Feb-18 00:00:00.0000, 3.817668081196067E+08, -1.621088442053888E+08, 1.831305846947905E+07,
2460000.500000000, A.D. 2023-Feb-25 00:00:00.0000, 3.842176496057799E+08, -1.518110456029312E+08, 1.802984448300530E+07,
2460007.500000000, A.D. 2023-Mar-04 00:00:00.0000, 3.864047646317053E+08, -1.414089349481530E+08, 1.773424162600476E+07,
2460014.500000000, A.D. 2023-Mar-11 00:00:00.0000, 3.883234228798113E+08, -1.309084690733452E+08, 1.742630418031256E+07,
2460021.500000000, A.D. 2023-Mar-18 00:00:00.0000, 3.899689588434464E+08, -1.203158184632379E+08, 1.710609610046984E+07,
2460028.500000000, A.D. 2023-Mar-25 00:00:00.0000, 3.913367801049253E+08, -1.096373725769471E+08, 1.677369141676404E+07,
2460035.500000000, A.D. 2023-Apr-01 00:00:00.0000, 3.924223768266227E+08, -9.887974483049408E+07, 1.642917460981343E+07,
2460042.500000000, A.D. 2023-Apr-08 00:00:00.0000, 3.932213318613541E+08, -8.804977597687499E+07, 1.607264111304075E+07,
2460049.500000000, A.D. 2023-Apr-15 00:00:00.0000, 3.937293291686981E+08, -7.715453695148738E+07, 1.570419806707876E+07,
2460056.500000000, A.D. 2023-Apr-22 00:00:00.0000, 3.939421623652921E+08, -6.620133419461987E+07, 1.532396490988647E+07,
2460063.500000000, A.D. 2023-Apr-29 00:00:00.0000, 3.938557461585402E+08, -5.519771515137932E+07, 1.493207373429780E+07,
2460070.500000000, A.D. 2023-May-06 00:00:00.0000, 3.934661289181793E+08, -4.415147211645804E+07, 1.452866971867612E+07,
2460077.500000000, A.D. 2023-May-13 00:00:00.0000, 3.927695054225171E+08, -3.307064526292206E+07, 1.411391164579627E+07,
2460084.500000000, A.D. 2023-May-20 00:00:00.0000, 3.917622300239062E+08, -2.196352528807820E+07, 1.368797244651346E+07,
2460091.500000000, A.D. 2023-May-27 00:00:00.0000, 3.904408304336962E+08, -1.083865564364479E+07, 1.325103974587837E+07,
2460098.500000000, A.D. 2023-Jun-03 00:00:00.0000, 3.888020221871055E+08, 2.951657422011141E+05, 1.280331640604868E+07,
2460105.500000000, A.D. 2023-Jun-10 00:00:00.0000, 3.868427238104252E+08, 1.142888530767104E+07, 1.234502105992606E+07,
2460112.500000000, A.D. 2023-Jun-17 00:00:00.0000, 3.845600727734143E+08, 2.255319327909046E+07, 1.187638861936035E+07,
2460119.500000000, A.D. 2023-Jun-24 00:00:00.0000, 3.819514425338799E+08, 3.365852380402824E+07, 1.139767072947386E+07,
2460126.500000000, A.D. 2023-Jul-01 00:00:00.0000, 3.790144609050031E+08, 4.473505670520540E+07, 1.090913620933158E+07,
2460133.500000000, A.D. 2023-Jul-08 00:00:00.0000, 3.757470280434539E+08, 5.577272176539075E+07, 1.041107169584924E+07,
2460140.500000000, A.D. 2023-Jul-15 00:00:00.0000, 3.721473327524108E+08, 6.676120280253109E+07, 9.903782373199578E+06,
2460147.500000000, A.D. 2023-Jul-22 00:00:00.0000, 3.682138705791338E+08, 7.768994058760290E+07, 9.387592375201713E+06,
$$EOE